{
  "type": "Feature",
  "properties": {
    "id": "bangalore-60km",
    "name": "Bangalore 60 km",
    "role": "aoi",
    "center": [77.5776037099731, 13.076858177177233],
    "zoom": 9,
    "radiusMeters": 60000,
    "compositeGridCrs": "EPSG:32643"
  },
  "bbox": [77.023647, 12.537266, 78.131561, 13.61645],
  "geometry": {
    "type": "Polygon",
    "coordinates": [
      [
        [77.577604, 13.61645],
        [77.625991, 13.614393],
        [77.674008, 13.608235],
        [77.721286, 13.598024],
        [77.767464, 13.583839],
        [77.812187, 13.565788],
        [77.855114, 13.544009],
        [77.895917, 13.51867],
        [77.934285, 13.489963],
        [77.969923, 13.458109],
        [78.002562, 13.423352],
        [78.031953, 13.385956],
        [78.057873, 13.346208],
        [78.080127, 13.304412],
        [78.098545, 13.260886],
        [78.112989, 13.215962],
        [78.123353, 13.169983],
        [78.129558, 13.1233],
        [78.131561, 13.076268],
        [78.129348, 13.029245],
        [78.122938, 12.982588],
        [78.112383, 12.936653],
        [78.097766, 12.891788],
        [78.079198, 12.848335],
        [78.056824, 12.806623],
        [78.030815, 12.766968],
        [78.001369, 12.729672],
        [77.968712, 12.695017],
        [77.933091, 12.663266],
        [77.894779, 12.634658],
        [77.854065, 12.609412],
        [77.811259, 12.587718],
        [77.766685, 12.569739],
        [77.72068, 12.555613],
        [77.673593, 12.545446],
        [77.625781, 12.539315],
        [77.577604, 12.537266],
        [77.529427, 12.539315],
        [77.481614, 12.545446],
        [77.434527, 12.555613],
        [77.388523, 12.569739],
        [77.343949, 12.587718],
        [77.301143, 12.609412],
        [77.260429, 12.634658],
        [77.222116, 12.663266],
        [77.186496, 12.695017],
        [77.153839, 12.729672],
        [77.124393, 12.766968],
        [77.098383, 12.806623],
        [77.076009, 12.848335],
        [77.057442, 12.891788],
        [77.042824, 12.936653],
        [77.032269, 12.982588],
        [77.02586, 13.029245],
        [77.023647, 13.076268],
        [77.025649, 13.1233],
        [77.031855, 13.169983],
        [77.042218, 13.215962],
        [77.056663, 13.260886],
        [77.075081, 13.304412],
        [77.097334, 13.346208],
        [77.123254, 13.385956],
        [77.152645, 13.423352],
        [77.185284, 13.458109],
        [77.220923, 13.489963],
        [77.25929, 13.51867],
        [77.300093, 13.544009],
        [77.34302, 13.565788],
        [77.387744, 13.583839],
        [77.433921, 13.598024],
        [77.4812, 13.608235],
        [77.529216, 13.614393],
        [77.577604, 13.61645]
      ]
    ]
  }
}
