{
  "type": "Feature",
  "properties": {
    "name": "Phase 2 NDVI reference polygon",
    "note": "Deterministic in-footprint polygon for the 2025-09-14 / 43PHP scene. Use this for Phase 2 tile/stat smoke tests; sample-plot.geojson is OUTSIDE this footprint and must not be used for the NDVI reference."
  },
  "bbox": [78.2, 12.1, 78.205, 12.105],
  "geometry": {
    "type": "Polygon",
    "coordinates": [
      [
        [78.2, 12.1],
        [78.205, 12.1],
        [78.205, 12.105],
        [78.2, 12.105],
        [78.2, 12.1]
      ]
    ]
  }
}
